IRIDIUM 26              
1 24903U 97043A   26002.79306912  .00000786  00000+0  25707-3 0  9992
2 24903  86.3944  26.7107 0002347  95.3090 264.8375 14.37348135485415
IRIDIUM 22              
1 24907U 97043E   26002.81941082  .00000638  00000+0  21255-3 0  9992
2 24907  86.3945  30.4111 0002320  90.2611 269.8851 14.36139192485426
DUMMY MASS 1            
1 24925U 97048A   26002.59690563  .00000770  00000+0  82423-4 0  9999
2 24925  86.3326  43.0516 0007740 142.7701 217.4062 14.87203958534765
DUMMY MASS 2            
1 24926U 97048B   26002.59237622  .00000757  00000+0  81485-4 0  9995
2 24926  86.3326  44.6984 0008059 154.5096 205.6528 14.86954335534536
IRIDIUM 29              
1 24944U 97051A   26002.69993309  .00000669  00000+0  22080-3 0  9998
2 24944  86.3933  60.1407 0002144  88.7628 271.3815 14.36682398481915
IRIDIUM 33              
1 24946U 97051C   26002.69474676  .00000588  00000+0  19922-3 0  9992
2 24946  86.3848  59.4235 0009291 136.1532 224.0404 14.35054499481355
IRIDIUM 28              
1 24948U 97051E   26002.68703868  .00000713  00000+0  23126-3 0  9992
2 24948  86.3938  57.5478 0002569 103.5399 256.6085 14.37582846482503
IRIDIUM 36              
1 24967U 97056C   26002.75849005  .00000814  00000+0  26372-3 0  9998
2 24967  86.3958  89.1471 0002393  96.2934 263.8536 14.37807225480890
